[
  {
    "norad_id": "32788",
    "name": "AAUSAT-2",
    "tle1": "1 32788U 08021F   25122.56562679  .00635019  00000+0  26236-2 0  9991\r",
    "tle2": "2 32788  97.5960 119.8927 0009425 139.1799 221.0178 15.84259671927391",
    "transmitters": [
      {
        "description": "Mode U 1k2 AFSK TLM",
        "mode": "AFSK",
        "status": "active",
        "uplink": null,
        "downlink": 437425000
      }
    ],
    "image": "https://db-satnogs.freetls.fastly.net/media/satellites/AAUSAT-2.jpg",
    "country": "DK"
  },
  {
    "norad_id": "22825",
    "name": "AO-27",
    "tle1": "1 22825U 93061C   25122.87455135  .00000225  00000+0  10322-3 0  9997\r",
    "tle2": "2 22825  98.7392 184.2370 0007717 217.0219 143.0431 14.30785526648597",
    "transmitters": [
      {
        "description": "Mode V/U FM",
        "mode": "FM",
        "status": "active",
        "uplink": 145850000,
        "downlink": 436795000
      },
      {
        "description": "Mode U AFSK Beacon",
        "mode": "AFSK",
        "status": "active",
        "uplink": null,
        "downlink": 436795000
      },
      {
        "description": "Mode S",
        "mode": "FM",
        "status": "active",
        "uplink": null,
        "downlink": 2218000000
      },
      {
        "description": "Mode U - GMSK9k6",
        "mode": "GMSK",
        "status": "active",
        "uplink": null,
        "downlink": 436797000
      }
    ],
    "image": "satellites/AO-27-PreFlight.jpg",
    "country": "US"
  },
  {
    "norad_id": "39444",
    "name": "AO-73",
    "tle1": "1 39444U 13066AE  25122.57504445  .00013025  00000+0  98592-3 0  9992\r",
    "tle2": "2 39444  97.7780  84.3645 0041920 153.4039 206.9348 15.01729534617884",
    "transmitters": [
      {
        "description": "Mode U/V Linear",
        "mode": "USB",
        "status": "active",
        "uplink": "435130000-435150000",
        "downlink": "145950000-145970000"
      },
      {
        "description": "CW Beacon",
        "mode": "CW",
        "status": "active",
        "uplink": null,
        "downlink": 145815000
      },
      {
        "description": "BPSK Telemetry",
        "mode": "BPSK",
        "status": "active",
        "uplink": null,
        "downlink": 145935000
      }
    ],
    "image": "https://db-satnogs.freetls.fastly.net/media/satellites/FUNCUBE-1.jpg",
    "country": "GB"
  },
  {
    "norad_id": "43017",
    "name": "AO-91",
    "tle1": "1 43017U 17073E   25122.61424959  .00012538  00000+0  65190-3 0  9997\r",
    "tle2": "2 43017  97.5297 354.3526 0172778 296.2016  62.1534 15.04124153403501",
    "transmitters": [
      {
        "description": "DUV TLM",
        "mode": "DUV",
        "status": "active",
        "uplink": null,
        "downlink": 145960000
      },
      {
        "description": "Mode U/V FM Voice CTCSS 67.0Hz",
        "mode": "FM",
        "status": "active",
        "uplink": 435250000,
        "downlink": 145960000
      }
    ],
    "image": "https://db-satnogs.freetls.fastly.net/media/satellites/RadFxSat_Flight-300x300.jpg",
    "country": "US"
  },
  {
    "norad_id": "61781",
    "name": "AO-123",
    "tle1": "1 61781U 24199AY  25122.86199364  .00011834  00000+0  43659-3 0  9992\r",
    "tle2": "2 61781  97.3597 351.0877 0015150 337.7431  22.3149 15.27825517 71121",
    "transmitters": [
      {
        "description": "Image download",
        "mode": "QPSK",
        "status": "active",
        "uplink": null,
        "downlink": 10460000000
      },
      {
        "description": "Mode V/U - FM Transceiver",
        "mode": "FM",
        "status": "active",
        "uplink": 145850000,
        "downlink": 435400000
      },
      {
        "description": "Mode U - Telemetry",
        "mode": "BPSK",
        "status": "active",
        "uplink": null,
        "downlink": 435400000
      },
      {
        "description": "Mode U - SSDV",
        "mode": "BPSK",
        "status": "active",
        "uplink": null,
        "downlink": 436210000
      }
    ],
    "image": "satellites/300px-阿斯图友谊号_IPvWmAo.jpg",
    "country": "CN,RU"
  },
  {
    "norad_id": "57175",
    "name": "BSUSat-2",
    "tle1": "1 57175U 23091K   25122.88894529  .00017528  00000+0  84883-3 0  9991\r",
    "tle2": "2 57175  97.5607 179.4003 0014136 113.0836 247.1890 15.18532501101837",
    "transmitters": [
      {
        "description": "Mode U 9k6 FSK AX.25",
        "mode": "FSK",
        "status": "active",
        "uplink": null,
        "downlink": 436990000
      },
      {
        "description": "Mode S - Transmitter",
        "mode": "FM",
        "status": "active",
        "uplink": null,
        "downlink": 2425000000
      }
    ],
    "image": "satellites/CUBEBEL-2-resize.jpg",
    "country": "BY"
  },
  {
    "norad_id": "41847",
    "name": "CAS-2T",
    "tle1": "1 41847U 16066G   25122.62466969  .00001266  00000+0  19069-3 0  9995\r",
    "tle2": "2 41847  98.4210 197.4143 0345323 293.4182  63.1050 14.43381890445546",
    "transmitters": [
      {
        "description": "FM Transponder",
        "mode": "FMN",
        "status": "active",
        "uplink": 145925000,
        "downlink": 435615000
      },
      {
        "description": "CW Telemetry",
        "mode": "CW",
        "status": "active",
        "uplink": null,
        "downlink": 435710000
      }
    ],
    "image": "satellites/cas-2t-145-435-mhz-fm-transponder-cubesat.jpg",
    "country": "CN"
  },
  {
    "norad_id": "40908",
    "name": "CAS-3H",
    "tle1": "1 40908U 15049K   25122.88537372  .00019269  00000+0  51662-3 0  9994\r",
    "tle2": "2 40908  97.5091 142.3420 0007391 300.3571  59.6942 15.38001124532436",
    "transmitters": [
      {
        "description": "CW Beacon",
        "mode": "CW",
        "status": "active",
        "uplink": null,
        "downlink": 437200000
      },
      {
        "description": "FM Transponder",
        "mode": "FM",
        "status": "active",
        "uplink": 144350000,
        "downlink": 437200000
      },
      {
        "description": "APRS Digipeater",
        "mode": "AFSK",
        "status": "active",
        "uplink": 144390000,
        "downlink": 144390000
      },
      {
        "description": "GFSK Telemetry",
        "mode": "GFSK",
        "status": "active",
        "uplink": null,
        "downlink": 437225000
      },
      {
        "description": "BPSK Telemetry",
        "mode": "BPSK",
        "status": "active",
        "uplink": null,
        "downlink": 437200000
      }
    ],
    "image": "https://db-satnogs.freetls.fastly.net/media/satellites/LILACSAT-2.jpg",
    "country": "CN"
  },
  {
    "norad_id": "44881",
    "name": "CAS-6",
    "tle1": "1 44881U 19093C   25122.77325682  .00001707  00000+0  20355-3 0  9991\r",
    "tle2": "2 44881  97.7933 199.2134 0013707   1.9973 358.1295 14.85517937290465",
    "transmitters": [
      {
        "description": "Mode V CW TLM",
        "mode": "CW",
        "status": "active",
        "uplink": null,
        "downlink": 145910000
      },
      {
        "description": "Mode V GMSK4k8 AX.25 TLM",
        "mode": "GMSK",
        "status": "active",
        "uplink": null,
        "downlink": 145890000
      },
      {
        "description": "Mode U/V Linear Transponder",
        "mode": "USB",
        "status": "active",
        "uplink": "435270000-435290000",
        "downlink": "145915000-145935000"
      },
      {
        "description": "Transmitter 401.545-401.555",
        "mode": "FM",
        "status": "active",
        "uplink": null,
        "downlink": 401550000
      },
      {
        "description": "S-band telemetry",
        "mode": "FM",
        "status": "active",
        "uplink": null,
        "downlink": 2278328000
      }
    ],
    "image": "",
    "country": "CN"
  },
  {
    "norad_id": "50466",
    "name": "CAS-9",
    "tle1": "1 50466U 21131B   25122.77366417  .00000981  00000+0  32056-3 0  9998\r",
    "tle2": "2 50466  98.5086 212.3165 0003155 238.5049 121.5831 14.40763960176009",
    "transmitters": [
      {
        "description": "Mode U - Telemetry",
        "mode": "CW",
        "status": "active",
        "uplink": null,
        "downlink": 435575000
      },
      {
        "description": "Mode U - GMSK4k8 AX.25 Telemetry",
        "mode": "GMSK",
        "status": "active",
        "uplink": null,
        "downlink": 435725000
      },
      {
        "description": "Mode V/U - Transponder",
        "mode": "USB",
        "status": "active",
        "uplink": "145855000-145885000",
        "downlink": "435165000-435195000"
      },
      {
        "description": "Mode U Audio",
        "mode": "BPSK",
        "status": "active",
        "uplink": null,
        "downlink": 435180000
      }
    ],
    "image": "satellites/cas9.png",
    "country": "CN"
  },
  {
    "norad_id": "60246",
    "name": "CatSat",
    "tle1": "1 60246U 24125J   25122.36486702  .00016103  00000+0  54973-3 0  9991\r",
    "tle2": "2 60246  97.2627 334.0730 0042112 228.6107 131.1510 15.29529446 44141",
    "transmitters": [
      {
        "description": "Mode U - FSK2k4",
        "mode": "FSK AX.100 Mode 5",
        "status": "active",
        "uplink": null,
        "downlink": 437185000
      },
      {
        "description": "Mode U - FSK38k4",
        "mode": "FSK AX.100 Mode 5",
        "status": "inactive",
        "uplink": null,
        "downlink": 437185000
      },
      {
        "description": "Mode U - FSK9k6",
        "mode": "FSK AX.100 Mode 5",
        "status": "inactive",
        "uplink": null,
        "downlink": 437185000
      },
      {
        "description": "Mode U - GMSK4k8 - Transmitter Frequency after Reset",
        "mode": "FSK AX.100 Mode 5",
        "status": "inactive",
        "uplink": null,
        "downlink": 437250000
      }
    ],
    "image": "",
    "country": "US"
  }
]